[{"OBJECT_NAME":"STARLINK-35486","OBJECT_ID":"2025-245V","EPOCH":"2026-03-09T20:54:15.291648","MEAN_MOTION":15.30206571,"ECCENTRICITY":8.053e-5,"INCLINATION":53.1576,"RA_OF_ASC_NODE":283.0968,"ARG_OF_PERICENTER":88.0724,"MEAN_ANOMALY":272.0369,"EPHEMERIS_TYPE":0,"CLASSIFICATION_TYPE":"U","NORAD_CAT_ID":66253,"ELEMENT_SET_NO":999,"REV_AT_EPOCH":2107,"BSTAR":0.00090593905,"MEAN_MOTION_DOT":0.00026574,"MEAN_MOTION_DDOT":0},{"OBJECT_NAME":"KUIPER-00213","OBJECT_ID":"2026-030P","EPOCH":"2026-03-09T22:00:01.999584","MEAN_MOTION":15.32626943,"ECCENTRICITY":0.00152813,"INCLINATION":51.8816,"RA_OF_ASC_NODE":218.5142,"ARG_OF_PERICENTER":64.2462,"MEAN_ANOMALY":206.8369,"EPHEMERIS_TYPE":0,"CLASSIFICATION_TYPE":"U","NORAD_CAT_ID":67777,"ELEMENT_SET_NO":999,"REV_AT_EPOCH":502,"BSTAR":0.0016072376,"MEAN_MOTION_DOT":0.00051551,"MEAN_MOTION_DDOT":0}]
